{
  "type": "FeatureCollection",
  "features": [
    {
      "type": "Feature",
      "properties": {
        "norad_id": 34056,
        "name": "COSMOS 2251 DEB",
        "group": "cosmos-2251-debris",
        "lat": -62.58244342884156,
        "lon": 35.94118374322516,
        "alt_km": 919.3729988220584,
        "timestamp": "2025-12-16T15:45:51.439499+00:00",
        "meta_object_name": "COSMOS 2251 DEB",
        "meta_object_id": "1993-036JT",
        "meta_epoch": "2025-12-15T08:16:49.707264",
        "meta_mean_motion": 14.20567852,
        "meta_eccentricity": 0.01239833,
        "meta_inclination": 74.0595,
        "meta_ra_of_asc_node": 71.7187,
        "meta_arg_of_pericenter": 118.8635,
        "meta_mean_anomaly": 307.6145,
        "meta_ephemeris_type": 0,
        "meta_classification_type": "U",
        "meta_norad_cat_id": 34056,
        "meta_element_set_no": 999,
        "meta_rev_at_epoch": 86448,
        "meta_bstar": 0.00072601988,
        "meta_mean_motion_dot": 1.663e-05,
        "meta_mean_motion_ddot": 0,
        "tle_line1": "1 34056U 93036JT  25349.34501976  .00001663  00000+0  72602-3 0  9992",
        "tle_line2": "2 34056  74.0595  71.7187 0123983 118.8635 307.6145 14.20567852864485"
      },
      "geometry": {
        "type": "Point",
        "coordinates": [
          35.94118374322516,
          -62.58244342884156
        ]
      }
    },
    {
      "type": "Feature",
      "properties": {
        "norad_id": 34058,
        "name": "COSMOS 2251 DEB",
        "group": "cosmos-2251-debris",
        "lat": -70.83346710957777,
        "lon": 47.780506797377804,
        "alt_km": 1061.7059059563253,
        "timestamp": "2025-12-16T15:45:51.439509+00:00",
        "meta_object_name": "COSMOS 2251 DEB",
        "meta_object_id": "1993-036JV",
        "meta_epoch": "2025-12-15T23:10:13.210752",
        "meta_mean_motion": 13.56081023,
        "meta_eccentricity": 0.03778067,
        "meta_inclination": 73.9313,
        "meta_ra_of_asc_node": 172.8839,
        "meta_arg_of_pericenter": 167.5092,
        "meta_mean_anomaly": 313.4046,
        "meta_ephemeris_type": 0,
        "meta_classification_type": "U",
        "meta_norad_cat_id": 34058,
        "meta_element_set_no": 999,
        "meta_rev_at_epoch": 83186,
        "meta_bstar": 0.00068241044,
        "meta_mean_motion_dot": 7.37e-06,
        "meta_mean_motion_ddot": 0,
        "tle_line1": "1 34058U 93036JV  25349.96543068  .00000737  00000+0  68241-3 0  9995",
        "tle_line2": "2 34058  73.9313 172.8839 0377806 167.5092 313.4046 13.56081023831863"
      },
      "geometry": {
        "type": "Point",
        "coordinates": [
          47.780506797377804,
          -70.83346710957777
        ]
      }
    },
    {
      "type": "Feature",
      "properties": {
        "norad_id": 34059,
        "name": "COSMOS 2251 DEB",
        "group": "cosmos-2251-debris",
        "lat": 38.78966127354478,
        "lon": -167.8124198011822,
        "alt_km": 723.4784384682271,
        "timestamp": "2025-12-16T15:45:51.439519+00:00",
        "meta_object_name": "COSMOS 2251 DEB",
        "meta_object_id": "1993-036JW",
        "meta_epoch": "2025-12-15T21:58:00.024384",
        "meta_mean_motion": 14.52966471,
        "meta_eccentricity": 0.00185584,
        "meta_inclination": 74.0369,
        "meta_ra_of_asc_node": 180.2858,
        "meta_arg_of_pericenter": 257.2795,
        "meta_mean_anomaly": 226.0241,
        "meta_ephemeris_type": 0,
        "meta_classification_type": "U",
        "meta_norad_cat_id": 34059,
        "meta_element_set_no": 999,
        "meta_rev_at_epoch": 88505,
        "meta_bstar": 0.00056653114,
        "meta_mean_motion_dot": 2.314e-05,
        "meta_mean_motion_ddot": 0,
        "tle_line1": "1 34059U 93036JW  25349.91527806  .00002314  00000+0  56653-3 0  9990",
        "tle_line2": "2 34059  74.0369 180.2858 0018558 257.2795 226.0241 14.52966471885056"
      },
      "geometry": {
        "type": "Point",
        "coordinates": [
          -167.8124198011822,
          38.78966127354478
        ]
      }
    },
    {
      "type": "Feature",
      "properties": {
        "norad_id": 34061,
        "name": "COSMOS 2251 DEB",
        "group": "cosmos-2251-debris",
        "lat": -28.76344030367739,
        "lon": 85.18779426159477,
        "alt_km": 770.6690009108434,
        "timestamp": "2025-12-16T15:45:51.439528+00:00",
        "meta_object_name": "COSMOS 2251 DEB",
        "meta_object_id": "1993-036JY",
        "meta_epoch": "2025-12-15T19:03:03.479328",
        "meta_mean_motion": 14.40364198,
        "meta_eccentricity": 0.00206284,
        "meta_inclination": 74.0391,
        "meta_ra_of_asc_node": 257.744,
        "meta_arg_of_pericenter": 334.1778,
        "meta_mean_anomaly": 82.5464,
        "meta_ephemeris_type": 0,
        "meta_classification_type": "U",
        "meta_norad_cat_id": 34061,
        "meta_element_set_no": 999,
        "meta_rev_at_epoch": 88224,
        "meta_bstar": 0.00031694833,
        "meta_mean_motion_dot": 9.82e-06,
        "meta_mean_motion_ddot": 0,
        "tle_line1": "1 34061U 93036JY  25349.79379027  .00000982  00000+0  31695-3 0  9997",
        "tle_line2": "2 34061  74.0391 257.7440 0020628 334.1778  82.5464 14.40364198882243"
      },
      "geometry": {
        "type": "Point",
        "coordinates": [
          85.18779426159477,
          -28.76344030367739
        ]
      }
    },
    {
      "type": "Feature",
      "properties": {
        "norad_id": 34062,
        "name": "COSMOS 2251 DEB",
        "group": "cosmos-2251-debris",
        "lat": 28.062421795005886,
        "lon": -58.45159783840748,
        "alt_km": 603.6321513324347,
        "timestamp": "2025-12-16T15:45:51.439538+00:00",
        "meta_object_name": "COSMOS 2251 DEB",
        "meta_object_id": "1993-036JZ",
        "meta_epoch": "2025-12-15T18:16:26.255136",
        "meta_mean_motion": 14.78793669,
        "meta_eccentricity": 0.0074199,
        "meta_inclination": 74.0275,
        "meta_ra_of_asc_node": 132.0921,
        "meta_arg_of_pericenter": 210.562,
        "meta_mean_anomaly": 215.745,
        "meta_ephemeris_type": 0,
        "meta_classification_type": "U",
        "meta_norad_cat_id": 34062,
        "meta_element_set_no": 999,
        "meta_rev_at_epoch": 88640,
        "meta_bstar": 0.0019952756,
        "meta_mean_motion_dot": 0.00015365,
        "meta_mean_motion_ddot": 0,
        "tle_line1": "1 34062U 93036JZ  25349.76141499  .00015365  00000+0  19953-2 0  9998",
        "tle_line2": "2 34062  74.0275 132.0921 0074199 210.5620 215.7450 14.78793669886406"
      },
      "geometry": {
        "type": "Point",
        "coordinates": [
          -58.45159783840748,
          28.062421795005886
        ]
      }
    },
    {
      "type": "Feature",
      "properties": {
        "norad_id": 34064,
        "name": "COSMOS 2251 DEB",
        "group": "cosmos-2251-debris",
        "lat": -30.210892360737105,
        "lon": 93.19803702613319,
        "alt_km": 763.7606260959947,
        "timestamp": "2025-12-16T15:45:51.439548+00:00",
        "meta_object_name": "COSMOS 2251 DEB",
        "meta_object_id": "1993-036KB",
        "meta_epoch": "2025-12-15T18:57:01.369152",
        "meta_mean_motion": 14.42349845,
        "meta_eccentricity": 0.00222155,
        "meta_inclination": 74.0329,
        "meta_ra_of_asc_node": 265.2097,
        "meta_arg_of_pericenter": 331.3258,
        "meta_mean_anomaly": 59.033,
        "meta_ephemeris_type": 0,
        "meta_classification_type": "U",
        "meta_norad_cat_id": 34064,
        "meta_element_set_no": 999,
        "meta_rev_at_epoch": 88186,
        "meta_bstar": 0.00041506113,
        "meta_mean_motion_dot": 1.349e-05,
        "meta_mean_motion_ddot": 0,
        "tle_line1": "1 34064U 93036KB  25349.78959918  .00001349  00000+0  41506-3 0  9992",
        "tle_line2": "2 34064  74.0329 265.2097 0022215 331.3258  59.0330 14.42349845881867"
      },
      "geometry": {
        "type": "Point",
        "coordinates": [
          93.19803702613319,
          -30.210892360737105
        ]
      }
    },
    {
      "type": "Feature",
      "properties": {
        "norad_id": 34065,
        "name": "COSMOS 2251 DEB",
        "group": "cosmos-2251-debris",
        "lat": 14.670262429645613,
        "lon": 66.60862250137093,
        "alt_km": 777.1881287752385,
        "timestamp": "2025-12-16T15:45:51.439558+00:00",
        "meta_object_name": "COSMOS 2251 DEB",
        "meta_object_id": "1993-036KC",
        "meta_epoch": "2025-12-15T19:13:47.525664",
        "meta_mean_motion": 14.38066068,
        "meta_eccentricity": 0.00165047,
        "meta_inclination": 74.0355,
        "meta_ra_of_asc_node": 252.4818,
        "meta_arg_of_pericenter": 349.4692,
        "meta_mean_anomaly": 67.4442,
        "meta_ephemeris_type": 0,
        "meta_classification_type": "U",
        "meta_norad_cat_id": 34065,
        "meta_element_set_no": 999,
        "meta_rev_at_epoch": 88249,
        "meta_bstar": 0.00015919514,
        "meta_mean_motion_dot": 4.56e-06,
        "meta_mean_motion_ddot": 0,
        "tle_line1": "1 34065U 93036KC  25349.80124451  .00000456  00000+0  15920-3 0  9991",
        "tle_line2": "2 34065  74.0355 252.4818 0016504 349.4692  67.4442 14.38066068882497"
      },
      "geometry": {
        "type": "Point",
        "coordinates": [
          66.60862250137093,
          14.670262429645613
        ]
      }
    }
  ]
}